name,phone,email,address,postalZip,region,country
Merrill Stephens,(165) 844-7545,malesuada@icloud.com,570-3972 Ut St.,2113,Central Region,Germany
Fay Romero,1-562-386-1324,libero.at.auctor@protonmail.couk,Ap #831-3929 Mauris Rd.,72-311,West Region,New Zealand
Brody Riggs,1-941-571-5326,turpis.egestas@google.net,285-862 Ultricies St.,68377,Dōngběi,Belgium
Jenna Mcneil,1-433-678-9917,aliquam.rutrum.lorem@yahoo.edu,7538 Dignissim Rd.,8675 PS,Västra Götalands län,Vietnam
Mariam Griffin,(317) 641-7369,dolor@yahoo.org,161-9572 Nam Rd.,162724,Sonora,Ireland
Reese Fuller,(889) 473-3888,eu.arcu@hotmail.edu,136-2184 Parturient Ave,35059,Navarra,India
Dylan Wolf,(238) 561-5839,ac@aol.edu,8952 Massa. Ave,23398,Carinthia,Belgium
Zelda Martin,1-458-363-8465,natoque.penatibus@hotmail.edu,425-3357 Lobortis. Avenue,82882,Campania,New Zealand
Sylvia Mcintosh,1-333-230-1554,est.nunc@protonmail.couk,Ap #841-3715 Lectus Avenue,C11 0UO,Huádōng,Sweden
Helen Harding,1-861-868-7713,euismod.mauris@yahoo.com,588 Sed St.,7348,Australian Capital Territory,Russian Federation
Wanda Miranda,1-326-586-2427,semper.pretium@outlook.edu,9464 Eu St.,12-488,Sucre,Philippines
Wesley Hines,1-323-737-3393,gravida.praesent@outlook.ca,"P.O. Box 237, 2114 Vel, Rd.",25091,Małopolskie,China
Teegan Camacho,1-377-669-8413,eu@yahoo.edu,Ap #937-7677 Vehicula Rd.,29533,North Island,Peru
Remedios Harmon,(881) 273-3326,blandit@icloud.net,5417 Pharetra. Street,26835,Washington,France
Cleo Carter,(463) 531-2907,sit.amet.massa@yahoo.net,Ap #692-3100 Eu Street,12986,Sơn La,Germany
Colt Merrill,(948) 384-2767,sit.amet@outlook.edu,"P.O. Box 122, 390 Sem. Road",68175,Cartago,Brazil
Echo Boone,(316) 660-3308,vivamus@yahoo.edu,285-1842 Sed Avenue,424685,North Island,Brazil
Adam Johns,(779) 414-6696,eget.magna@outlook.couk,8365 Justo Rd.,485822,Limpopo,Chile
Aimee Pacheco,(380) 233-2015,sem.eget@protonmail.edu,"P.O. Box 468, 5055 Vulputate St.",4587,North West,Italy
Mark Joseph,1-708-678-6164,senectus.et.netus@protonmail.edu,"350-5998 Elit, Rd.",1631,Ilocos Region,Australia
